{
  "type": "FeatureCollection",
  "features": [
    {
      "type": "Feature",
      "properties": {
        "norad_id": 34540,
        "name": "IRIDIUM 33 DEB",
        "group": "iridium-33-debris",
        "lat": 64.71791861837669,
        "lon": 116.15575919430586,
        "alt_km": 625.7256864972233,
        "timestamp": "2025-12-20T14:38:02.354481+00:00",
        "meta_object_name": "IRIDIUM 33 DEB",
        "meta_object_id": "1997-051JH",
        "meta_epoch": "2025-12-19T20:29:06.527328",
        "meta_mean_motion": 14.75455566,
        "meta_eccentricity": 0.00175023,
        "meta_inclination": 86.3106,
        "meta_ra_of_asc_node": 304.3534,
        "meta_arg_of_pericenter": 135.0106,
        "meta_mean_anomaly": 285.9801,
        "meta_ephemeris_type": 0,
        "meta_classification_type": "U",
        "meta_norad_cat_id": 34540,
        "meta_element_set_no": 999,
        "meta_rev_at_epoch": 89126,
        "meta_bstar": 0.00097623982,
        "meta_mean_motion_dot": 6.676e-05,
        "meta_mean_motion_ddot": 0,
        "tle_line1": "1 34540U 97051JH  25353.85354777  .00006676  00000+0  97624-3 0  9997",
        "tle_line2": "2 34540  86.3106 304.3534 0017502 135.0106 285.9801 14.75455566891262"
      },
      "geometry": {
        "type": "Point",
        "coordinates": [
          116.15575919430586,
          64.71791861837669
        ]
      }
    },
    {
      "type": "Feature",
      "properties": {
        "norad_id": 34648,
        "name": "IRIDIUM 33 DEB",
        "group": "iridium-33-debris",
        "lat": -76.24046868677615,
        "lon": 113.70469364901703,
        "alt_km": 736.3439665528831,
        "timestamp": "2025-12-20T14:38:02.354491+00:00",
        "meta_object_name": "IRIDIUM 33 DEB",
        "meta_object_id": "1997-051JZ",
        "meta_epoch": "2025-12-20T01:30:04.009824",
        "meta_mean_motion": 14.11697564,
        "meta_eccentricity": 0.01804111,
        "meta_inclination": 86.3908,
        "meta_ra_of_asc_node": 278.9892,
        "meta_arg_of_pericenter": 275.9673,
        "meta_mean_anomaly": 82.0975,
        "meta_ephemeris_type": 0,
        "meta_classification_type": "U",
        "meta_norad_cat_id": 34648,
        "meta_element_set_no": 999,
        "meta_rev_at_epoch": 85064,
        "meta_bstar": 0.0043645055,
        "meta_mean_motion_dot": 9.277e-05,
        "meta_mean_motion_ddot": 0,
        "tle_line1": "1 34648U 97051JZ  25354.06254641  .00009277  00000+0  43645-2 0  9992",
        "tle_line2": "2 34648  86.3908 278.9892 0180411 275.9673  82.0975 14.11697564850648"
      },
      "geometry": {
        "type": "Point",
        "coordinates": [
          113.70469364901703,
          -76.24046868677615
        ]
      }
    },
    {
      "type": "Feature",
      "properties": {
        "norad_id": 34651,
        "name": "IRIDIUM 33 DEB",
        "group": "iridium-33-debris",
        "lat": -1.5359009772483594,
        "lon": 137.129531532019,
        "alt_km": 910.7865811444208,
        "timestamp": "2025-12-20T14:38:02.354501+00:00",
        "meta_object_name": "IRIDIUM 33 DEB",
        "meta_object_id": "1997-051KC",
        "meta_epoch": "2025-12-19T16:44:48.420096",
        "meta_mean_motion": 14.25922062,
        "meta_eccentricity": 0.01422464,
        "meta_inclination": 86.2827,
        "meta_ra_of_asc_node": 137.6175,
        "meta_arg_of_pericenter": 181.9677,
        "meta_mean_anomaly": 178.0974,
        "meta_ephemeris_type": 0,
        "meta_classification_type": "U",
        "meta_norad_cat_id": 34651,
        "meta_element_set_no": 999,
        "meta_rev_at_epoch": 85995,
        "meta_bstar": 0.0022061693,
        "meta_mean_motion_dot": 5.865e-05,
        "meta_mean_motion_ddot": 0,
        "tle_line1": "1 34651U 97051KC  25353.69778264  .00005865  00000+0  22062-2 0  9995",
        "tle_line2": "2 34651  86.2827 137.6175 0142246 181.9677 178.0974 14.25922062859957"
      },
      "geometry": {
        "type": "Point",
        "coordinates": [
          137.129531532019,
          -1.5359009772483594
        ]
      }
    },
    {
      "type": "Feature",
      "properties": {
        "norad_id": 34652,
        "name": "IRIDIUM 33 DEB",
        "group": "iridium-33-debris",
        "lat": -5.681819220932337,
        "lon": -23.868933884891195,
        "alt_km": 688.4424966931783,
        "timestamp": "2025-12-20T14:38:02.354511+00:00",
        "meta_object_name": "IRIDIUM 33 DEB",
        "meta_object_id": "1997-051KD",
        "meta_epoch": "2025-12-19T17:51:26.256096",
        "meta_mean_motion": 14.62117993,
        "meta_eccentricity": 0.00255284,
        "meta_inclination": 86.331,
        "meta_ra_of_asc_node": 336.8822,
        "meta_arg_of_pericenter": 272.5866,
        "meta_mean_anomaly": 207.7977,
        "meta_ephemeris_type": 0,
        "meta_classification_type": "U",
        "meta_norad_cat_id": 34652,
        "meta_element_set_no": 999,
        "meta_rev_at_epoch": 88586,
        "meta_bstar": 0.00063186757,
        "meta_mean_motion_dot": 3.211e-05,
        "meta_mean_motion_ddot": 0,
        "tle_line1": "1 34652U 97051KD  25353.74405389  .00003211  00000+0  63187-3 0  9994",
        "tle_line2": "2 34652  86.3310 336.8822 0025528 272.5866 207.7977 14.62117993885860"
      },
      "geometry": {
        "type": "Point",
        "coordinates": [
          -23.868933884891195,
          -5.681819220932337
        ]
      }
    },
    {
      "type": "Feature",
      "properties": {
        "norad_id": 34690,
        "name": "IRIDIUM 33 DEB",
        "group": "iridium-33-debris",
        "lat": 19.260464733801037,
        "lon": 34.83959611571517,
        "alt_km": 702.3659312397331,
        "timestamp": "2025-12-20T14:38:02.354522+00:00",
        "meta_object_name": "IRIDIUM 33 DEB",
        "meta_object_id": "1997-051KM",
        "meta_epoch": "2025-12-19T02:30:15.635232",
        "meta_mean_motion": 14.55118004,
        "meta_eccentricity": 0.00100928,
        "meta_inclination": 86.3778,
        "meta_ra_of_asc_node": 34.2255,
        "meta_arg_of_pericenter": 8.472,
        "meta_mean_anomaly": 50.0408,
        "meta_ephemeris_type": 0,
        "meta_classification_type": "U",
        "meta_norad_cat_id": 34690,
        "meta_element_set_no": 999,
        "meta_rev_at_epoch": 88187,
        "meta_bstar": 0.00032814485,
        "meta_mean_motion_dot": 1.438e-05,
        "meta_mean_motion_ddot": 0,
        "tle_line1": "1 34690U 97051KM  25353.10434763  .00001438  00000+0  32814-3 0  9996",
        "tle_line2": "2 34690  86.3778  34.2255 0010092   8.4720  50.0408 14.55118004881875"
      },
      "geometry": {
        "type": "Point",
        "coordinates": [
          34.83959611571517,
          19.260464733801037
        ]
      }
    },
    {
      "type": "Feature",
      "properties": {
        "norad_id": 34693,
        "name": "IRIDIUM 33 DEB",
        "group": "iridium-33-debris",
        "lat": -5.678447298563465,
        "lon": -60.459537937407575,
        "alt_km": 474.4312863209334,
        "timestamp": "2025-12-20T14:38:02.354532+00:00",
        "meta_object_name": "IRIDIUM 33 DEB",
        "meta_object_id": "1997-051KQ",
        "meta_epoch": "2025-12-19T21:40:09.433344",
        "meta_mean_motion": 15.29576103,
        "meta_eccentricity": 0.0012454,
        "meta_inclination": 86.3023,
        "meta_ra_of_asc_node": 300.2612,
        "meta_arg_of_pericenter": 40.9264,
        "meta_mean_anomaly": 23.8115,
        "meta_ephemeris_type": 0,
        "meta_classification_type": "U",
        "meta_norad_cat_id": 34693,
        "meta_element_set_no": 999,
        "meta_rev_at_epoch": 89024,
        "meta_bstar": 0.0029727,
        "meta_mean_motion_dot": 0.00086209,
        "meta_mean_motion_ddot": 0,
        "tle_line1": "1 34693U 97051KQ  25353.90288696  .00086209  00000+0  29727-2 0  9996",
        "tle_line2": "2 34693  86.3023 300.2612 0012454  40.9264  23.8115 15.29576103890246"
      },
      "geometry": {
        "type": "Point",
        "coordinates": [
          -60.459537937407575,
          -5.678447298563465
        ]
      }
    },
    {
      "type": "Feature",
      "properties": {
        "norad_id": 34696,
        "name": "IRIDIUM 33 DEB",
        "group": "iridium-33-debris",
        "lat": 84.02541569028304,
        "lon": 63.49235572256637,
        "alt_km": 638.4894633777258,
        "timestamp": "2025-12-20T14:38:02.354542+00:00",
        "meta_object_name": "IRIDIUM 33 DEB",
        "meta_object_id": "1997-051KT",
        "meta_epoch": "2025-12-20T03:03:36.896832",
        "meta_mean_motion": 14.65425134,
        "meta_eccentricity": 0.0073881,
        "meta_inclination": 86.1833,
        "meta_ra_of_asc_node": 24.0835,
        "meta_arg_of_pericenter": 142.6074,
        "meta_mean_anomaly": 281.0712,
        "meta_ephemeris_type": 0,
        "meta_classification_type": "U",
        "meta_norad_cat_id": 34696,
        "meta_element_set_no": 999,
        "meta_rev_at_epoch": 86781,
        "meta_bstar": 0.0025217059,
        "meta_mean_motion_dot": 0.00014237,
        "meta_mean_motion_ddot": 0,
        "tle_line1": "1 34696U 97051KT  25354.12751038  .00014237  00000+0  25217-2 0  9991",
        "tle_line2": "2 34696  86.1833  24.0835 0073881 142.6074 281.0712 14.65425134867818"
      },
      "geometry": {
        "type": "Point",
        "coordinates": [
          63.49235572256637,
          84.02541569028304
        ]
      }
    }
  ]
}